0311P         2020 10  7.4489  1.936110  0.115269  144.5872  279.2271    4.9700  20200324  17.0  4.0  311P/PANSTARRS                                           MPC109593
0312P         2020 09 24.9595  1.983157  0.428235  207.5205  144.6739   19.7641  20200324  16.0  4.0  312P/NEAT                                                MPC 92279
0313P         2020 04 15.1603  2.418893  0.234775  254.6043  105.9723   10.9834  20200324  15.0  4.0  313P/Gibbs                                               MPEC 2019-TG9
0314P         2016 10  9.4834  4.246767  0.416445  214.2426  267.6199    3.9790  20200324   9.5  4.0  314P/Montani                                             MPC105243
0315P         2016 12  3.9323  2.359558  0.522743   65.6308   69.2338   17.8585  20200324  11.0  4.0  315P/LONEOS                                              MPC115888
0316P         2015 10 29.6161  3.643776  0.161326  193.8948  246.7678    9.8878  20200324  13.5  4.0  316P/LONEOS-Christensen                                  MPC 92279
0317P         2020 09 26.1754  1.273858  0.570436  334.8992  275.5197   11.9509  20200324  17.5  4.0  317P/WISE                                                MPEC 2020-C98
0318P         2015 10 23.3540  2.438123  0.674766  313.0984   35.6615   17.8716  20200324   8.5  6.0  318P/McNaught-Hartley                                    MPC102103
0319P         2022 03 31.4619  1.190734  0.666402  203.6057  111.3788   15.0952  20200324  15.0  4.0  319P/Catalina-McNaught                                   MPC 97499
0320P         2021 01 17.1478  0.972560  0.685697    0.7634  295.9296    4.9088  20200324  20.5  4.0  320P/McNaught                                            MPC 96281
0321P         2020 01 17.2507  0.045890  0.981061  172.7236  165.0469   20.0449  20200324  20.0  4.0  321P/SOHO                                                MPC105243
0322P         2019 08 31.5098  0.050748  0.979771   56.9362  351.4697   11.4598  20200324  19.0  4.0  322P/SOHO                                                MPC102103
0323P         2021 01 17.7551  0.039194  0.984823  353.0456  324.3748    5.3352  20200324  20.0  4.0  323P/SOHO                                                MPEC 2016-Y36
0324P         2021 05  7.8474  2.616693  0.154471   58.1317  270.6428   21.4236  20200324  13.0  4.0  324P/La Sagra                                            MPC108598
0325P         2022 03 28.9332  1.431499  0.593816  343.6788  257.5797   16.7012  20200324  14.0  4.0  325P/Yang-Gao                                            MPC114609
0326P         2023 12 31.8821  2.775994  0.317099  278.5964   99.8145    2.4707  20200324  13.5  4.0  326P/Hill                                                MPC103849
0327P         2022 09  2.7660  1.558526  0.562614  185.0189  173.9676   36.2374  20200324  16.0  4.0  327P/Van Ness                                            MPC 97499
0328P         2015 12 23.9161  1.882770  0.551373   30.4913  341.6136   17.6648  20200324  14.5  4.0  328P/LONEOS-Tucker                                       MPC109148
0329P         2015 11 30.5117  1.678635  0.676801  343.5723   87.6857   21.6635  20200324  13.5  4.0  329P/LINEAR-Catalina                                     MPC101101
0330P         2016 08 28.3606  2.991202  0.549126  189.0171  293.0959   15.6942  20200324  12.0  4.0  330P/Catalina                                            MPC105243
0331P         2020 09 29.4663  2.881246  0.040508  183.7117  216.7780    9.7404  20200324  12.0  4.0  331P/Gibbs                                               MPC110497
0332P         2021 08 18.4789  1.576347  0.489473  152.3855    3.7944    9.3815  20200324  18.0  4.0  332P/Ikeya-Murakami                                      MPEC 2016-K18
0332P      b  2016 03 17.1650  1.572891  0.489707  152.3711    3.8028    9.3805            19.0  4.0  332P-B/Ikeya-Murakami                                    MPEC 2016-EI8
0332P      c  2021 08 18.4010  1.576313  0.489478  152.3768    3.7948    9.3805  20200324  16.5  4.0  332P-C/Ikeya-Murakami                                    MPEC 2016-K18
0332P      d  2016 03 17.2819  1.572064  0.489778  152.4393    3.7923    9.3761            19.0  4.0  332P-D/Ikeya-Murakami                                    MPEC 2016-ED0
0332P      e  2016 03 17.0610  1.573139  0.489220  152.2825    3.8228    9.3774            21.0  4.0  332P-E/Ikeya-Murakami                                    MPEC 2016-ED0
0332P      f  2016 03 17.8554  1.584174  0.499189  152.8203    3.4757    9.5293            21.0  4.0  332P-F/Ikeya-Murakami                                    MPEC 2016-ED0
0332P      g  2016 03 19.5375  1.549652  0.492004  154.4000    3.6955    9.2523            19.0  4.0  332P-G/Ikeya-Murakami                                    MPEC 2016-ED0
0332P      h  2021 08 18.7593  1.576298  0.489513  152.3775    3.7946    9.3811  20200324  19.0  4.0  332P-H/Ikeya-Murakami                                    MPC100285
0332P      i  2016 03 17.3515  1.573073  0.489555  152.3297    3.8048    9.3791            20.5  2.0  332P-I/Ikeya-Murakami                                    MPEC 2016-ED0
0332P      j  2016 03 17.7739  1.575357  0.494294  152.7712    3.6729    9.4296            20.5  2.0  332P-J/Ikeya-Murakami                                    MPEC 2016-EI8
0333P         2016 04  1.8447  1.113546  0.736152   26.0707  115.6224  131.9744  20200324  15.0  4.0  333P/LINEAR                                              MPC104796
0334P         2017 06 10.1498  4.402003  0.356146   89.6012   90.7639   20.5401  20200324  10.5  4.0  334P/NEAT                                                MPC111774
0335P         2022 08 12.7171  1.628375  0.545019  162.2418  330.8420    7.2904  20200324  17.0  4.0  335P/Gibbs                                               MPC100285
0336P         2017 02  3.2846  2.786928  0.445838  308.6968  298.2287   17.8340  20200324  13.5  4.0  336P/McNaught                                            MPC105244
0337P         2022 06 30.8222  1.654013  0.496944  160.9680  106.0721   15.3738  20200324  17.0  4.0  337P/WISE                                                MPC112394
0338P         2016 11 22.0090  2.297410  0.410778    4.4055    9.7872   25.3647  20200324  12.0  4.0  338P/McNaught                                            MPC104796
0339P         2023 08 30.8241  1.344643  0.636096   27.5211  172.7560    5.7370  20200324  17.0  4.0  339P/Gibbs                                               MPC101101
0340P         2016 11 19.2212  3.059504  0.280439   35.7742  291.7284    2.0797  20200324  13.0  4.0  340P/Boattini                                            MPC102957
0341P         2016 05 27.5849  2.513394  0.414848  312.0942   30.0095    3.7941  20200324  12.5  4.0  341P/Gibbs                                               MPC109148
0342P         2021 10 19.1703  0.050560  0.983384   62.7833   38.5459   12.3539  20200324   9.0  4.0  342P/SOHO                                                MPC101101
0343P         2017 01 27.5873  2.275413  0.583524  137.3886  257.2451    5.5829  20200324  14.0  4.0  343P/NEAT-LONEOS                                         MPC109148
0344P         2016 10 31.4369  2.817778  0.421288  140.4412  273.1934    3.4902  20200324  13.0  4.0  344P/Read                                                MPC109148
0345P         2016 07 15.9085  3.150902  0.220313  196.3473  154.4971    2.7261  20200324  12.0  4.0  345P/LINEAR                                              MPC109148
0346P         2017 02 14.3486  2.227856  0.502392  336.0408  102.4682   22.1855  20200324  14.0  4.0  346P/Catalina                                            MPC110086
0347P         2023 07 20.7332  2.218450  0.385113   98.2877  261.0491   11.7476  20200324  15.0  4.0  347P/PANSTARRS                                           MPC108599
0348P         2022 02 11.6901  2.191880  0.305895  135.1905  312.9418   17.7221  20200324  14.0  4.0  348P/PANSTARRS                                           MPC104796
0349P         2017 08 26.3748  2.501169  0.299654  256.0313  331.7545    5.4914  20200324  14.0  4.0  349P/Lemmon                                              MPC112394
0350P         2017 12 23.2323  3.729333  0.090552  141.4326   65.4209    7.3573  20200324  14.0  4.0  350P/McNaught                                            MPC111775
0351P         2015 11 18.4531  3.122419  0.296208  352.5948  283.4492   12.7908  20200324  12.5  4.0  351P/Wiegert-PANSTARRS                                   MPC105244
0352P         2017 06 21.9672  2.534065  0.617989  309.1046   28.1192   21.0099  20200324  11.5  4.0  352P/Skiff                                               MPC110086
0353P         2017 12 21.1538  2.212314  0.469684  230.3755  121.5620   28.4234  20200324  14.5  4.0  353P/McNaught                                            MPEC 2020-AA5
0354P         2020 04 27.5645  2.002285  0.125652  133.0867  320.1308    5.2553  20200324  15.5  4.0  354P/LINEAR                                              MPC105545
0355P         2017 10 12.6152  1.713785  0.506587  336.2577   51.4475   11.0340  20200324  15.5  2.0  355P/LINEAR-NEAT                                         MPEC 2020-AA5
0356P         2017 12 16.8474  2.686930  0.354385  226.0578  160.7888    9.6331  20200324  14.0  4.0  356P/WISE                                                MPC109148
0357P         2018 05 28.7561  2.524781  0.434314    1.4512   44.5915    6.3089  20200324  15.5  4.0  357P/Hill                                                MPC114609
0358P         2018 04 11.3342  2.400102  0.237875  299.7647   85.7184   11.0570  20200324  18.0  4.0  358P/PANSTARRS                                           MPC106350
0359P         2017 08 20.7281  3.137662  0.323708  200.1172  149.7630   10.2636  20200324  13.5  4.0  359P/LONEOS                                              MPC110086
